3.04                O                   G                   RINEX VERSION / TYPE
SYNTH-REFL          TEST                20240601 000000 UTC PGM / RUN BY / DATE
 -2248562.1597  5050353.2992  3170398.7354                  APPROX POSITION XYZ
     0                                                      RCV CLOCK OFFS APPL
G    1 S1C                                                  SYS / # / OBS TYPES
  2024     6     1     0    10   0.0000000GPS         TIME OF FIRST OBS
                                                            END OF HEADER
> 2024 06 01 00 10  0.0000000  0  8      
G01        46.855  
G02        44.156  
G03        49.361  
G04        38.657  
G05        27.894  
G06        46.256  
G07        47.322  
G08        45.941  
> 2024 06 01 00 11  0.0000000  0  8      
G01        46.723  
G02        44.088  
G03        49.223  
G04        43.035  
G05        28.583  
G06        44.520  
G07        42.867  
G08        43.492  
> 2024 06 01 00 12  0.0000000  0  8      
G01        46.508  
G02        44.306  
G03        45.566  
G04        46.157  
G05        25.559  
G06        40.134  
G07        45.711  
G08        42.450  
> 2024 06 01 00 13  0.0000000  0  8      
G01        46.652  
G02        44.600  
G03        44.181  
G04        46.830  
G05        28.330  
G06        37.048  
G07        48.688  
G08        43.690  
> 2024 06 01 00 14  0.0000000  0  8      
G01        46.335  
G02        44.769  
G03        48.222  
G04        44.242  
G05        28.354  
G06        41.047  
G07        45.975  
G08        46.137  
> 2024 06 01 00 15  0.0000000  0  8      
G01        46.352  
G02        45.291  
G03        49.519  
G04        39.982  
G05        30.042  
G06        44.800  
G07        43.182  
G08        47.984  
> 2024 06 01 00 16  0.0000000  0  8      
G01        46.019  
G02        46.037  
G03        47.548  
G04        38.697  
G05        28.536  
G06        46.603  
G07        47.317  
G08        48.777  
> 2024 06 01 00 17  0.0000000  0  8      
G01        45.867  
G02        46.246  
G03        44.605  
G04        43.300  
G05        28.733  
G06        44.613  
G07        48.740  
G08        48.080  
> 2024 06 01 00 18  0.0000000  0  8      
G01        45.468  
G02        46.583  
G03        46.778  
G04        46.742  
G05        26.581  
G06        39.867  
G07        44.884  
G08        46.411  
> 2024 06 01 00 19  0.0000000  0  8      
G01        45.122  
G02        47.098  
G03        49.615  
G04        46.778  
G05        28.108  
G06        37.124  
G07        43.863  
G08        44.892  
> 2024 06 01 00 20  0.0000000  0  8      
G01        44.695  
G02        47.559  
G03        48.451  
G04        43.722  
G05        28.320  
G06        41.008  
G07        48.359  
G08        42.686  
> 2024 06 01 00 21  0.0000000  0  8      
G01        44.523  
G02        48.151  
G03        44.684  
G04        39.521  
G05        28.162  
G06        45.662  
G07        48.147  
G08        42.851  
> 2024 06 01 00 22  0.0000000  0  8      
G01        43.406  
G02        48.506  
G03        45.214  
G04        38.628  
G05        28.240  
G06        46.407  
G07        43.756  
G08        44.792  
> 2024 06 01 00 23  0.0000000  0  8      
G01        42.851  
G02        48.690  
G03        49.069  
G04        44.006  
G05        28.434  
G06        44.344  
G07        45.377  
G08        46.495  
> 2024 06 01 00 24  0.0000000  0  8      
G01        42.067  
G02        48.950  
G03        48.879  
G04        46.492  
G05        29.005  
G06        39.341  
G07        49.056  
G08        48.013  
> 2024 06 01 00 25  0.0000000  0  8      
G01        41.618  
G02        48.928  
G03        45.123  
G04        46.044  
G05        27.106  
G06        37.954  
G07        46.971  
G08        48.824  
> 2024 06 01 00 26  0.0000000  0  8      
G01        40.264  
G02        48.960  
G03        44.693  
G04        43.292  
G05        28.855  
G06        41.878  
G07        43.571  
G08        48.730  
> 2024 06 01 00 27  0.0000000  0  8      
G01        40.104  
G02        48.491  
G03        48.646  
G04        38.305  
G05        29.985  
G06        45.883  
G07        46.510  
G08        47.418  
> 2024 06 01 00 28  0.0000000  0  8      
G01        39.321  
G02        47.787  
G03        49.187  
G04        39.630  
G05        29.827  
G06        46.488  
G07        49.047  
G08        45.821  
> 2024 06 01 00 29  0.0000000  0  8      
G01        38.993  
G02        47.180  
G03        45.297  
G04        44.164  
G05        26.673  
G06        43.540  
G07        46.634  
G08        43.875  
> 2024 06 01 00 30  0.0000000  0  8      
G01        38.767  
G02        46.245  
G03        44.819  
G04        46.464  
G05        28.353  
G06        38.672  
G07        43.033  
G08        42.945  
> 2024 06 01 00 31  0.0000000  0  8      
G01        39.504  
G02        45.083  
G03        48.370  
G04        46.176  
G05        27.869  
G06        38.623  
G07        47.364  
G08        42.528  
> 2024 06 01 00 32  0.0000000  0  8      
G01        40.633  
G02        43.874  
G03        49.047  
G04        42.527  
G05        27.969  
G06        43.373  
G07        49.136  
G08        44.071  
> 2024 06 01 00 33  0.0000000  0  8      
G01        41.089  
G02        43.206  
G03        45.504  
G04        38.552  
G05        29.009  
G06        46.389  
G07        45.281  
G08        46.032  
> 2024 06 01 00 34  0.0000000  0  8      
G01        42.492  
G02        42.970  
G03        44.566  
G04        40.152  
G05        29.513  
G06        46.346  
G07        43.892  
G08        47.604  
> 2024 06 01 00 35  0.0000000  0  8      
G01        43.084  
G02        43.731  
G03        48.543  
G04        44.607  
G05        30.626  
G06        43.058  
G07        48.074  
G08        48.163  
> 2024 06 01 00 36  0.0000000  0  8      
G01        44.646  
G02        44.436  
G03        48.845  
G04        46.817  
G05        25.936  
G06        37.322  
G07        48.890  
G08        48.813  
> 2024 06 01 00 37  0.0000000  0  8      
G01        45.406  
G02        46.018  
G03        44.743  
G04        45.583  
G05        28.182  
G06        39.724  
G07        44.635  
G08        48.708  
> 2024 06 01 00 38  0.0000000  0  8      
G01        46.237  
G02        47.369  
G03        44.413  
G04        41.923  
G05        26.962  
G06        44.570  
G07        44.633  
G08        47.842  
> 2024 06 01 00 39  0.0000000  0  8      
G01        46.883  
G02        48.351  
G03        48.909  
G04        37.297  
G05        29.498  
G06        46.809  
G07        48.667  
G08        46.596  
> 2024 06 01 00 40  0.0000000  0  8      
G01        47.086  
G02        48.953  
G03        48.502  
G04        39.954  
G05        28.027  
G06        45.761  
G07        48.662  
G08        45.022  
> 2024 06 01 00 41  0.0000000  0  8      
G01        47.104  
G02        48.637  
G03        43.614  
G04        44.361  
G05        30.055  
G06        41.329  
G07        44.434  
G08        43.852  
> 2024 06 01 00 42  0.0000000  0  8      
G01        47.137  
G02        48.358  
G03        45.074  
G04        46.614  
G05        28.579  
G06        38.517  
G07        45.155  
G08        43.104  
> 2024 06 01 00 43  0.0000000  0  8      
G01        46.219  
G02        47.296  
G03        48.811  
G04        45.896  
G05        26.813  
G06        41.780  
G07        48.908  
G08        42.400  
> 2024 06 01 00 44  0.0000000  0  8      
G01        45.804  
G02        45.908  
G03        47.881  
G04        42.087  
G05        29.222  
G06        45.401  
G07        48.623  
G08        43.181  
> 2024 06 01 00 45  0.0000000  0  8      
G01        44.280  
G02        43.744  
G03        43.619  
G04        37.603  
G05        30.284  
G06        46.904  
G07        44.650  
G08        44.504  
> 2024 06 01 00 46  0.0000000  0  8      
G01        42.618  
G02        42.839  
G03        45.472  
G04        40.292  
G05        30.221  
G06        44.675  
G07        45.377  
G08        45.392  
> 2024 06 01 00 47  0.0000000  0  8      
G01        41.205  
G02        43.138  
G03        49.052  
G04        44.347  
G05        30.989  
G06        40.034  
G07        48.984  
G08        46.417  
> 2024 06 01 00 48  0.0000000  0  8      
G01        39.494  
G02        44.976  
G03        47.156  
G04        46.538  
G05        29.241  
G06        38.615  
G07        48.691  
G08        47.595  
> 2024 06 01 00 49  0.0000000  0  8      
G01        38.836  
G02        46.457  
G03        43.189  
G04        45.691  
G05        28.009  
G06        43.596  
G07        44.707  
G08        48.298  
> 2024 06 01 00 50  0.0000000  0  8      
G01        39.010  
G02        48.080  
G03        46.981  
G04        41.818  
G05        29.676  
G06        46.725  
G07        45.161  
G08        48.509  
> 2024 06 01 00 51  0.0000000  0  8      
G01        40.719  
G02        49.050  
G03        49.016  
G04        37.445  
G05        29.617  
G06        46.500  
G07        48.748  
G08        48.716  
> 2024 06 01 00 52  0.0000000  0  8      
G01        42.649  
G02        48.617  
G03        46.082  
G04        39.842  
G05        31.427  
G06        43.126  
G07        49.235  
G08        48.833  
> 2024 06 01 00 53  0.0000000  0  8      
G01        43.938  
G02        47.565  
G03        43.353  
G04        44.286  
G05        32.488  
G06        38.425  
G07        45.250  
G08        48.607  
> 2024 06 01 00 54  0.0000000  0  8      
G01        45.589  
G02        45.959  
G03        47.728  
G04        46.426  
G05        31.904  
G06        40.774  
G07        44.850  
G08        48.319  
> 2024 06 01 00 55  0.0000000  0  8      
G01        46.650  
G02        44.344  
G03        48.747  
G04        45.789  
G05        31.220  
G06        45.338  
G07        48.301  
G08        47.666  
> 2024 06 01 00 56  0.0000000  0  8      
G01        47.223  
G02        42.933  
G03        44.480  
G04        41.784  
G05        32.967  
G06        46.970  
G07        49.471  
G08        47.647  
> 2024 06 01 00 57  0.0000000  0  8      
G01        47.101  
G02        43.305  
G03        43.877  
G04        37.575  
G05        33.700  
G06        45.327  
G07        46.368  
G08        46.525  
> 2024 06 01 00 58  0.0000000  0  8      
G01        46.649  
G02        45.727  
G03        48.599  
G04        38.298  
G05        34.747  
G06        41.198  
G07        44.317  
G08        46.032  
> 2024 06 01 00 59  0.0000000  0  8      
G01        45.031  
G02        47.313  
G03        47.962  
G04        43.233  
G05        35.143  
G06        39.281  
G07        47.530  
G08        45.337  
> 2024 06 01 01 00  0.0000000  0  8      
G01        43.591  
G02        48.719  
G03        43.190  
G04        46.284  
G05        35.734  
G06        42.536  
G07        49.568  
G08        45.074  
> 2024 06 01 01 01  0.0000000  0  8      
G01        41.609  
G02        48.425  
G03        45.659  
G04        46.097  
G05        36.910  
G06        46.399  
G07        47.635  
G08        44.176  
> 2024 06 01 01 02  0.0000000  0  8      
G01        40.459  
G02        47.458  
G03        49.037  
G04        42.784  
G05        36.901  
G06        46.670  
G07        44.418  
G08        44.202  
> 2024 06 01 01 03  0.0000000  0  8      
G01        38.260  
G02        45.535  
G03        46.626  
G04        37.618  
G05        37.178  
G06        44.041  
G07        46.426  
G08        43.522  
> 2024 06 01 01 04  0.0000000  0  8      
G01        39.328  
G02        43.090  
G03        42.476  
G04        36.817  
G05        37.983  
G06        40.026  
G07        49.261  
G08        43.383  
> 2024 06 01 01 05  0.0000000  0  8      
G01        41.437  
G02        42.521  
G03        46.911  
G04        41.992  
G05        39.173  
G06        39.960  
G07        49.121  
G08        43.137  
> 2024 06 01 01 06  0.0000000  0  8      
G01        43.638  
G02        44.748  
G03        48.704  
G04        45.705  
G05        39.126  
G06        44.512  
G07        45.805  
G08        43.073  
> 2024 06 01 01 07  0.0000000  0  8      
G01        45.758  
G02        46.860  
G03        44.957  
G04        45.915  
G05        39.921  
G06        46.966  
G07        44.552  
G08        42.962  
> 2024 06 01 01 08  0.0000000  0  8      
G01        46.881  
G02        48.300  
G03        42.959  
G04        43.760  
G05        39.825  
G06        46.314  
G07        48.084  
G08        42.745  
> 2024 06 01 01 09  0.0000000  0  8      
G01        47.167  
G02        48.542  
G03        47.938  
G04        38.853  
G05        40.327  
G06        41.904  
G07        50.034  
G08        42.818  
> 2024 06 01 01 10  0.0000000  0  8      
G01        46.703  
G02        47.338  
G03                
G04        36.502  
G05        41.765  
G06        38.743  
G07        47.905  
G08        42.629  
> 2024 06 01 01 11  0.0000000  0  8      
G01        45.199  
G02        45.077  
G03                
G04        40.036  
G05        41.256  
G06        42.112  
G07        45.282  
G08        42.148  
> 2024 06 01 01 12  0.0000000  0  8      
G01        43.613  
G02        42.473  
G03                
G04        44.384  
G05        42.018  
G06        45.914  
G07        45.697  
G08        43.222  
> 2024 06 01 01 13  0.0000000  0  8      
G01        41.320  
G02        42.926  
G03        48.402  
G04        45.904  
G05        42.396  
G06        47.240  
G07        48.990  
G08        42.871  
> 2024 06 01 01 14  0.0000000  0  8      
G01        38.592  
G02        45.449  
G03        46.901  
G04        45.263  
G05        43.326  
G06        45.038  
G07        49.731  
G08        42.903  
> 2024 06 01 01 15  0.0000000  0  8      
G01        38.482  
G02        47.646  
G03        42.410  
G04        40.762  
G05        43.356  
G06        40.684  
G07        47.727  
G08        42.919  
> 2024 06 01 01 16  0.0000000  0  8      
G01        40.197  
G02        48.571  
G03        45.881  
G04        36.238  
G05        43.573  
G06        39.908  
G07        44.701  
G08        43.059  
> 2024 06 01 01 17  0.0000000  0  8      
G01        42.602  
G02        47.899  
G03        48.591  
G04        36.981  
G05        43.810  
G06        44.195  
G07        46.192  
G08        43.062  
> 2024 06 01 01 18  0.0000000  0  8      
G01        45.050  
G02        45.597  
G03        45.352  
G04        42.656  
G05        44.043  
G06        46.884  
G07        49.164  
G08        43.382  
> 2024 06 01 01 19  0.0000000  0  8      
G01        46.500  
G02        43.000  
G03        42.593  
G04        45.401  
G05        44.314  
G06        46.863  
G07        49.959  
G08        43.692  
> 2024 06 01 01 20  0.0000000  0  8      
G01        46.901  
G02        42.499  
G03        47.239  
G04        45.951  
G05        44.410  
G06        43.169  
G07        48.147  
G08        44.197  
> 2024 06 01 01 21  0.0000000  0  8      
G01        46.682  
G02        44.930  
G03        48.033  
G04        43.526  
G05        44.443  
G06        38.730  
G07        45.417  
G08        44.048  
> 2024 06 01 01 22  0.0000000  0  8      
G01        44.810  
G02        47.361  
G03        44.113  
G04        38.356  
G05        44.590  
G06        42.043  
G07        46.067  
G08        44.854  
> 2024 06 01 01 23  0.0000000  0  8      
G01        42.687  
G02        48.453  
G03        43.139  
G04        36.093  
G05        44.626  
G06        45.750  
G07        48.726  
G08        45.305  
> 2024 06 01 01 24  0.0000000  0  8      
G01        40.056  
G02        48.062  
G03        48.036  
G04        40.150  
G05        44.585  
G06        47.387  
G07        50.107  
G08        45.897  
> 2024 06 01 01 25  0.0000000  0  8      
G01        37.716  
G02        45.743  
G03        47.451  
G04        44.174  
G05        44.043  
G06        45.888  
G07        49.091  
G08        46.572  
> 2024 06 01 01 26  0.0000000  0  8      
G01        38.338  
G02        42.781  
G03        42.798  
G04        46.047  
G05        44.121  
G06        41.917  
G07        46.714  
G08        46.911  
> 2024 06 01 01 27  0.0000000  0  8      
G01        41.740  
G02        42.722  
G03        44.627  
G04        45.520  
G05        44.274  
G06        39.883  
G07        45.228  
G08        48.008  
> 2024 06 01 01 28  0.0000000  0  8      
G01        44.247  
G02        45.194  
G03        48.466  
G04        42.349  
G05        43.707  
G06        43.357  
G07        47.061  
G08        48.546  
> 2024 06 01 01 29  0.0000000  0  8      
G01        46.147  
G02        47.928  
G03        46.257  
G04        36.784  
G05        43.337  
G06        46.930  
G07        49.549  
G08        48.512  
> 2024 06 01 01 30  0.0000000  0  8      
G01        46.761  
G02        48.614  
G03        41.706  
G04        35.208  
G05        43.201  
G06        47.396  
G07        50.212  
G08        48.812  
> 2024 06 01 01 31  0.0000000  0  8      
G01        46.730  
G02        47.417  
G03        45.785  
G04        40.443  
G05        42.202  
G06        44.808  
G07        48.825  
G08        48.912  
> 2024 06 01 01 32  0.0000000  0  8      
G01        45.171  
G02        44.524  
G03        48.400  
G04        44.502  
G05        42.076  
G06        40.447  
G07        46.446  
G08        48.696  
> 2024 06 01 01 33  0.0000000  0  8      
G01        43.239  
G02        42.772  
G03        45.310  
G04        45.966  
G05        41.576  
G06        40.753  
G07        45.162  
G08        48.000  
> 2024 06 01 01 34  0.0000000  0  8      
G01        39.988  
G02        42.973  
G03        41.329  
G04        44.455  
G05        40.537  
G06        44.791  
G07        46.915  
G08        47.181  
> 2024 06 01 01 35  0.0000000  0  8      
G01        38.445  
G02        46.119  
G03        46.512  
G04        40.814  
G05        39.273  
G06        47.261  
G07        49.335  
G08        46.053  
> 2024 06 01 01 36  0.0000000  0  8      
G01        39.040  
G02        48.170  
G03        48.170  
G04        36.576  
G05        37.696  
G06        46.679  
G07        50.225  
G08        45.300  
> 2024 06 01 01 37  0.0000000  0  8      
G01        42.380  
G02        48.268  
G03        44.416  
G04        36.986  
G05        37.151  
G06        43.377  
G07        49.845  
G08        43.732  
> 2024 06 01 01 38  0.0000000  0  8      
G01        44.865  
G02        46.242  
G03        42.587  
G04        41.174  
G05        36.340  
G06        40.308  
G07        47.562  
G08        43.005  
> 2024 06 01 01 39  0.0000000  0  8      
G01        46.334  
G02        43.342  
G03        47.092  
G04        44.341  
G05        33.577  
G06        42.308  
G07        45.775  
G08        42.768  
> 2024 06 01 01 40  0.0000000  0  8      
G01        46.746  
G02        41.983  
G03        47.570  
G04        46.023  
G05        33.571  
G06        46.317  
G07        46.111  
G08        43.716  
> 2024 06 01 01 41  0.0000000  0  8      
G01        45.807  
G02        44.345  
G03        43.158  
G04        44.706  
G05        32.155  
G06        47.343  
G07        47.573  
G08        44.823  
> 2024 06 01 01 42  0.0000000  0  8      
G01        44.293  
G02        47.346  
G03        42.336  
G04        41.409  
G05        30.407  
G06        46.021  
G07        49.225  
G08        46.621  
> 2024 06 01 01 43  0.0000000  0  8      
G01        41.928  
G02        48.709  
G03        47.493  
G04        36.867  
G05        29.394  
G06        42.646  
G07        50.354  
G08        47.864  
> 2024 06 01 01 44  0.0000000  0  8      
G01        38.533  
G02        47.411  
G03        47.542  
G04        34.935  
G05        28.546  
G06        40.115  
G07        50.318  
G08        48.631  
> 2024 06 01 01 45  0.0000000  0  8      
G01        38.039  
G02        44.654  
G03        43.063  
G04        38.873  
G05        29.905  
G06        43.795  
G07        48.768  
G08        48.813  
> 2024 06 01 01 46  0.0000000  0  8      
G01        40.919  
G02        41.783  
G03        42.655  
G04        43.381  
G05        32.318  
G06        46.628  
G07        46.826  
G08        48.206  
> 2024 06 01 01 47  0.0000000  0  8      
G01        43.555  
G02        43.235  
G03        47.615  
G04        45.231  
G05        32.825  
G06        47.537  
G07        45.670  
G08        47.154  
> 2024 06 01 01 48  0.0000000  0  8      
G01        45.459  
G02        45.875  
G03        47.355  
G04        44.999  
G05        33.208  
G06        45.378  
G07        46.281  
G08        45.614  
> 2024 06 01 01 49  0.0000000  0  8      
G01        46.657  
G02        47.983  
G03        42.410  
G04        42.571  
G05        34.490  
G06        41.505  
G07        47.693  
G08        43.041  
